56153_OBJECT A 
1 56153U 23047A   23201.73174970  .00008989  00000-0  49429-3 0  9997
2 56153  97.5018  28.0524 0001693  85.7931 274.3494 15.14302939 17014
56154_OBJECT B 
1 56154U 23047B   23201.73175079  .00009598  00000-0  52747-3 0  9993
2 56154  97.5027  28.0500 0001983  76.7730 283.3723 15.14303400 17017
56155_OBJECT C 
1 56155U 23047C   23201.79782814  .00005857  00000-0  32349-3 0  9991
2 56155  97.5033  28.1180 0001461  73.3258 286.8134 15.14299704 17025
56156_OBJECT D 
1 56156U 23047D   23201.73174866  .00008549  00000-0  47031-3 0  9993
2 56156  97.5005  28.0531 0001428 114.0411 246.0970 15.14302847 17019
